{
    "links": {
        "self": "http://www.neowsapp.com/rest/v1/neo/3775159?api_key=iIulBulltgU6a56xZRHN4H3l9WmuAYTsLGpBGhQ2"
    },
    "id": "3775159",
    "neo_reference_id": "3775159",
    "name": "(2017 KO34)",
    "designation": "2017 KO34",
    "nasa_jpl_url": "http://ssd.jpl.nasa.gov/sbdb.cgi?sstr=3775159",
    "absolute_magnitude_h": 21.2,
    "estimated_diameter": {
        "kilometers": {
            "estimated_diameter_min": 0.1529519353,
            "estimated_diameter_max": 0.3420109247
        },
        "meters": {
            "estimated_diameter_min": 152.9519353442,
            "estimated_diameter_max": 342.0109247198
        },
        "miles": {
            "estimated_diameter_min": 0.095039897,
            "estimated_diameter_max": 0.2125156703
        },
        "feet": {
            "estimated_diameter_min": 501.8108275547,
            "estimated_diameter_max": 1122.0831222578
        }
    },
    "is_potentially_hazardous_asteroid": false,
    "close_approach_data": [
        {
            "close_approach_date": "2017-05-08",
            "close_approach_date_full": "2017-May-08 14:14",
            "epoch_date_close_approach": 1494252840000,
            "relative_velocity": {
                "kilometers_per_second": "27.7276253075",
                "kilometers_per_hour": "99819.451107175",
                "miles_per_hour": "62023.9250504555"
            },
            "miss_distance": {
                "astronomical": "0.1728866128",
                "lunar": "67.2528923792",
                "kilometers": "25863469.026394736",
                "miles": "16070814.4394339168"
            },
            "orbiting_body": "Earth"
        }
    ],
    "orbital_data": {
        "orbit_id": "2",
        "orbit_determination_date": "2017-06-17 06:18:11",
        "first_observation_date": "2017-05-28",
        "last_observation_date": "2017-06-16",
        "data_arc_in_days": 19,
        "observations_used": 25,
        "orbit_uncertainty": "9",
        "minimum_orbit_intersection": ".104041",
        "jupiter_tisserand_invariant": "4.568",
        "epoch_osculation": "2457904.5",
        "eccentricity": ".6234385230556252",
        "semi_major_axis": "1.334999243160204",
        "inclination": "32.12504765548307",
        "ascending_node_longitude": "212.3196512456526",
        "orbital_period": "563.4040390260581",
        "perihelion_distance": ".5027092867240291",
        "perihelion_argument": "272.364694571839",
        "aphelion_distance": "2.16728919959638",
        "perihelion_time": "2457837.538963745954",
        "mean_anomaly": "42.78629789933336",
        "mean_motion": ".6389730549719215",
        "equinox": "J2000",
        "orbit_class": {
            "orbit_class_type": "APO",
            "orbit_class_description": "Near-Earth asteroid orbits which cross the Earth’s orbit similar to that of 1862 Apollo",
            "orbit_class_range": "a (semi-major axis) > 1.0 AU; q (perihelion) < 1.017 AU"
        }
    },
    "is_sentry_object": false
}